{
  "type": "FeatureCollection",
  "features": [
    {
      "type": "Feature",
      "properties": {
        "norad_id": 33791,
        "name": "COSMOS 2251 DEB",
        "group": "cosmos-2251-debris",
        "lat": -6.319467620443972,
        "lon": 16.132598782430748,
        "alt_km": 767.9793207514494,
        "timestamp": "2025-12-23T09:49:07.475430+00:00",
        "meta_object_name": "COSMOS 2251 DEB",
        "meta_object_id": "1993-036AG",
        "meta_epoch": "2025-12-22T19:41:53.054880",
        "meta_mean_motion": 14.43174553,
        "meta_eccentricity": 0.00301371,
        "meta_inclination": 74.1745,
        "meta_ra_of_asc_node": 19.0157,
        "meta_arg_of_pericenter": 214.2974,
        "meta_mean_anomaly": 323.4864,
        "meta_ephemeris_type": 0,
        "meta_classification_type": "U",
        "meta_norad_cat_id": 33791,
        "meta_element_set_no": 999,
        "meta_rev_at_epoch": 88197,
        "meta_bstar": 0.0008105211,
        "meta_mean_motion_dot": 2.714e-05,
        "meta_mean_motion_ddot": 0,
        "tle_line1": "1 33791U 93036AG  25356.82075295  .00002714  00000+0  81052-3 0  9995",
        "tle_line2": "2 33791  74.1745  19.0157 0030137 214.2974 323.4864 14.43174553881979"
      },
      "geometry": {
        "type": "Point",
        "coordinates": [
          16.132598782430748,
          -6.319467620443972
        ]
      }
    },
    {
      "type": "Feature",
      "properties": {
        "norad_id": 33792,
        "name": "COSMOS 2251 DEB",
        "group": "cosmos-2251-debris",
        "lat": -72.76785278875836,
        "lon": -143.09423945616192,
        "alt_km": 1278.8529401518972,
        "timestamp": "2025-12-23T09:49:07.475440+00:00",
        "meta_object_name": "COSMOS 2251 DEB",
        "meta_object_id": "1993-036AH",
        "meta_epoch": "2025-12-22T21:54:04.027968",
        "meta_mean_motion": 13.4584187,
        "meta_eccentricity": 0.04276847,
        "meta_inclination": 73.9013,
        "meta_ra_of_asc_node": 329.0985,
        "meta_arg_of_pericenter": 31.8889,
        "meta_mean_anomaly": 350.8661,
        "meta_ephemeris_type": 0,
        "meta_classification_type": "U",
        "meta_norad_cat_id": 33792,
        "meta_element_set_no": 999,
        "meta_rev_at_epoch": 82579,
        "meta_bstar": 0.0010508769,
        "meta_mean_motion_dot": 1.07e-05,
        "meta_mean_motion_ddot": 0,
        "tle_line1": "1 33792U 93036AH  25356.91254662  .00001070  00000+0  10509-2 0  9995",
        "tle_line2": "2 33792  73.9013 329.0985 0427684  31.8889 350.8661 13.45841870825794"
      },
      "geometry": {
        "type": "Point",
        "coordinates": [
          -143.09423945616192,
          -72.76785278875836
        ]
      }
    },
    {
      "type": "Feature",
      "properties": {
        "norad_id": 33793,
        "name": "COSMOS 2251 DEB",
        "group": "cosmos-2251-debris",
        "lat": 6.695454280739288,
        "lon": 132.45917101519063,
        "alt_km": 799.0607181196519,
        "timestamp": "2025-12-23T09:49:07.475457+00:00",
        "meta_object_name": "COSMOS 2251 DEB",
        "meta_object_id": "1993-036AJ",
        "meta_epoch": "2025-12-22T12:15:08.768160",
        "meta_mean_motion": 14.27754603,
        "meta_eccentricity": 0.00788456,
        "meta_inclination": 73.9806,
        "meta_ra_of_asc_node": 132.1591,
        "meta_arg_of_pericenter": 280.3462,
        "meta_mean_anomaly": 148.9527,
        "meta_ephemeris_type": 0,
        "meta_classification_type": "U",
        "meta_norad_cat_id": 33793,
        "meta_element_set_no": 999,
        "meta_rev_at_epoch": 87346,
        "meta_bstar": 0.00065880221,
        "meta_mean_motion_dot": 1.655e-05,
        "meta_mean_motion_ddot": 0,
        "tle_line1": "1 33793U 93036AJ  25356.51051815  .00001655  00000+0  65880-3 0  9999",
        "tle_line2": "2 33793  73.9806 132.1591 0078845 280.3462 148.9527 14.27754603873462"
      },
      "geometry": {
        "type": "Point",
        "coordinates": [
          132.45917101519063,
          6.695454280739288
        ]
      }
    },
    {
      "type": "Feature",
      "properties": {
        "norad_id": 33795,
        "name": "COSMOS 2251 DEB",
        "group": "cosmos-2251-debris",
        "lat": 59.132467744804316,
        "lon": 83.47884769047951,
        "alt_km": 536.012403233959,
        "timestamp": "2025-12-23T09:49:07.475480+00:00",
        "meta_object_name": "COSMOS 2251 DEB",
        "meta_object_id": "1993-036AL",
        "meta_epoch": "2025-12-22T13:18:52.443360",
        "meta_mean_motion": 15.05824898,
        "meta_eccentricity": 0.00303571,
        "meta_inclination": 74.0323,
        "meta_ra_of_asc_node": 56.6077,
        "meta_arg_of_pericenter": 136.546,
        "meta_mean_anomaly": 337.6477,
        "meta_ephemeris_type": 0,
        "meta_classification_type": "U",
        "meta_norad_cat_id": 33795,
        "meta_element_set_no": 999,
        "meta_rev_at_epoch": 90169,
        "meta_bstar": 0.0012136516,
        "meta_mean_motion_dot": 0.00017797,
        "meta_mean_motion_ddot": 0,
        "tle_line1": "1 33795U 93036AL  25356.55477365  .00017797  00000+0  12137-2 0  9997",
        "tle_line2": "2 33795  74.0323  56.6077 0030357 136.5460 337.6477 15.05824898901694"
      },
      "geometry": {
        "type": "Point",
        "coordinates": [
          83.47884769047951,
          59.132467744804316
        ]
      }
    },
    {
      "type": "Feature",
      "properties": {
        "norad_id": 33797,
        "name": "COSMOS 2251 DEB",
        "group": "cosmos-2251-debris",
        "lat": -27.50340274553367,
        "lon": -156.75290077384187,
        "alt_km": 719.3060298436121,
        "timestamp": "2025-12-23T09:49:07.475516+00:00",
        "meta_object_name": "COSMOS 2251 DEB",
        "meta_object_id": "1993-036AN",
        "meta_epoch": "2025-12-22T11:58:25.315968",
        "meta_mean_motion": 14.57880559,
        "meta_eccentricity": 0.00603835,
        "meta_inclination": 74.0464,
        "meta_ra_of_asc_node": 16.4112,
        "meta_arg_of_pericenter": 101.3166,
        "meta_mean_anomaly": 11.4661,
        "meta_ephemeris_type": 0,
        "meta_classification_type": "U",
        "meta_norad_cat_id": 33797,
        "meta_element_set_no": 999,
        "meta_rev_at_epoch": 89127,
        "meta_bstar": 0.00034277848,
        "meta_mean_motion_dot": 1.581e-05,
        "meta_mean_motion_ddot": 0,
        "tle_line1": "1 33797U 93036AN  25356.49890412  .00001581  00000+0  34278-3 0  9999",
        "tle_line2": "2 33797  74.0464  16.4112 0060383 101.3166  11.4661 14.57880559891277"
      },
      "geometry": {
        "type": "Point",
        "coordinates": [
          -156.75290077384187,
          -27.50340274553367
        ]
      }
    },
    {
      "type": "Feature",
      "properties": {
        "norad_id": 33798,
        "name": "COSMOS 2251 DEB",
        "group": "cosmos-2251-debris",
        "lat": -56.4464676675498,
        "lon": 90.45130429829918,
        "alt_km": 721.5687674200826,
        "timestamp": "2025-12-23T09:49:07.475538+00:00",
        "meta_object_name": "COSMOS 2251 DEB",
        "meta_object_id": "1993-036AP",
        "meta_epoch": "2025-12-22T11:08:50.394624",
        "meta_mean_motion": 14.44626394,
        "meta_eccentricity": 0.0092366,
        "meta_inclination": 74.0292,
        "meta_ra_of_asc_node": 117.7918,
        "meta_arg_of_pericenter": 237.0475,
        "meta_mean_anomaly": 191.1937,
        "meta_ephemeris_type": 0,
        "meta_classification_type": "U",
        "meta_norad_cat_id": 33798,
        "meta_element_set_no": 999,
        "meta_rev_at_epoch": 88734,
        "meta_bstar": 0.00017197454,
        "meta_mean_motion_dot": 5.98e-06,
        "meta_mean_motion_ddot": 0,
        "tle_line1": "1 33798U 93036AP  25356.46447216  .00000598  00000+0  17197-3 0  9995",
        "tle_line2": "2 33798  74.0292 117.7918 0092366 237.0475 191.1937 14.44626394887348"
      },
      "geometry": {
        "type": "Point",
        "coordinates": [
          90.45130429829918,
          -56.4464676675498
        ]
      }
    },
    {
      "type": "Feature",
      "properties": {
        "norad_id": 33799,
        "name": "COSMOS 2251 DEB",
        "group": "cosmos-2251-debris",
        "lat": 73.8718691718181,
        "lon": 142.75524425365438,
        "alt_km": 610.5781603898567,
        "timestamp": "2025-12-23T09:49:07.475550+00:00",
        "meta_object_name": "COSMOS 2251 DEB",
        "meta_object_id": "1993-036AQ",
        "meta_epoch": "2025-12-22T10:46:25.690944",
        "meta_mean_motion": 14.79744929,
        "meta_eccentricity": 0.00224679,
        "meta_inclination": 74.0318,
        "meta_ra_of_asc_node": 62.6676,
        "meta_arg_of_pericenter": 129.9441,
        "meta_mean_anomaly": 245.0155,
        "meta_ephemeris_type": 0,
        "meta_classification_type": "U",
        "meta_norad_cat_id": 33799,
        "meta_element_set_no": 999,
        "meta_rev_at_epoch": 88955,
        "meta_bstar": 0.0013396152,
        "meta_mean_motion_dot": 0.00010098,
        "meta_mean_motion_ddot": 0,
        "tle_line1": "1 33799U 93036AQ  25356.44890846  .00010098  00000+0  13396-2 0  9997",
        "tle_line2": "2 33799  74.0318  62.6676 0022467 129.9441 245.0155 14.79744929889553"
      },
      "geometry": {
        "type": "Point",
        "coordinates": [
          142.75524425365438,
          73.8718691718181
        ]
      }
    }
  ]
}